{
  "norad_id": 64698,
  "name": "STARLINK-34535",
  "history": [
    {
      "epoch": "2026-03-28T21:23:02.255712",
      "apogee_km": 574.0369553122264,
      "perigee_km": 570.0128115817106,
      "latitude_deg": 52.24960585361844,
      "longitude_deg": 15.33583968016319,
      "semi_major_axis_km": 6950.161883446968,
      "eccentricity": 0.0002895,
      "inclination_deg": 70.0002,
      "raan_deg": 266.1469,
      "arg_perigee_deg": 269.1557,
      "mean_anomaly_deg": 90.927,
      "mean_motion_rev_day": 14.98340027
    }
  ]
}